[
  {
    "name": "KUIPER-00250",
    "noradId": "67155",
    "line1": "1 67155U 25301Y   26178.08571058  .00000100  00000+0  42105-4 0  9999",
    "line2": "2 67155  51.8977 306.8481 0000717  97.9306 262.1738 14.79934342 29895"
  },
  {
    "name": "KUIPER-00251",
    "noradId": "67156",
    "line1": "1 67156U 25301Z   26178.50433821 -.00001062  00000+0 -11038-3 0  9992",
    "line2": "2 67156  51.9013 292.5638 0000406  55.6868 304.4133 14.79918240 30285"
  },
  {
    "name": "KUIPER-00252",
    "noradId": "67157",
    "line1": "1 67157U 25301AA  26178.50168029 -.00000152  00000+0  90061-5 0  9991",
    "line2": "2 67157  51.9007 295.0273 0000389  93.6012 266.4994 14.79931607 30065"
  },
  {
    "name": "KUIPER-00261",
    "noradId": "67158",
    "line1": "1 67158U 25301AB  26178.52465596  .00001669  00000+0  24788-3 0  9997",
    "line2": "2 67158  51.9029 304.9739 0000514 104.1515 255.9505 14.79936917 29926"
  },
  {
    "name": "KUIPER-00265",
    "noradId": "67159",
    "line1": "1 67159U 25301AC  26178.13706413  .00002659  00000+0  37767-3 0  9992",
    "line2": "2 67159  51.9024 321.6613 0000496 107.8740 252.2277 14.79937527 29696"
  },
  {
    "name": "KUIPER-00159",
    "noradId": "67764",
    "line1": "1 67764U 26030A   26178.36863944  .00029547  00000+0  77188-3 0  9998",
    "line2": "2 67764  51.8863  49.0550 0007073  78.4678 281.7103 15.38517598 21965"
  },
  {
    "name": "KUIPER-00160",
    "noradId": "67765",
    "line1": "1 67765U 26030B   26178.50002315  .00063042  00000+0  17012-2 0  9999",
    "line2": "2 67765  51.8822  48.3403 0006432  86.0915 293.9550 15.37167295  5672"
  },
  {
    "name": "KUIPER-00177",
    "noradId": "67766",
    "line1": "1 67766U 26030C   26178.48913822  .00000811  00000+0  13540-3 0  9999",
    "line2": "2 67766  51.9002  87.5898 0000896 102.0801 258.0262 14.79934489 21434"
  },
  {
    "name": "KUIPER-00178",
    "noradId": "67767",
    "line1": "1 67767U 26030D   26178.45544953  .00011131  00000+0  14863-2 0  9997",
    "line2": "2 67767  51.9003  87.7218 0000593  98.2107 261.8923 14.79942088 21433"
  },
  {
    "name": "KUIPER-00180",
    "noradId": "67768",
    "line1": "1 67768U 26030E   26178.46075983  .00002260  00000+0  32534-3 0  9990",
    "line2": "2 67768  51.8995  82.7045 0000754  96.6881 263.4167 14.79934876 21508"
  },
  {
    "name": "KUIPER-00197",
    "noradId": "67769",
    "line1": "1 67769U 26030F   26178.41471529  .00004416  00000+0  60827-3 0  9993",
    "line2": "2 67769  51.8992  62.9197 0000840 146.3110 213.7906 14.79909756 21775"
  },
  {
    "name": "KUIPER-00198",
    "noradId": "67770",
    "line1": "1 67770U 26030G   26178.43508291  .00003100  00000+0  43547-3 0  9993",
    "line2": "2 67770  51.8983  75.3154 0000633  94.0748 266.0286 14.79935229 21602"
  },
  {
    "name": "KUIPER-00199",
    "noradId": "67771",
    "line1": "1 67771U 26030H   26177.92907024  .00028102  00000+0  78102-3 0  9998",
    "line2": "2 67771  51.8823  52.7687 0011066  89.3966 270.8288 15.36593626 21876"
  },
  {
    "name": "KUIPER-00200",
    "noradId": "67772",
    "line1": "1 67772U 26030J   26178.50002315  .00005091  00000+0  63227-3 0  9997",
    "line2": "2 67772  51.8988  60.0328 0002961  47.8451 235.7742 14.84014405  5248"
  },
  {
    "name": "KUIPER-00203",
    "noradId": "67773",
    "line1": "1 67773U 26030K   26178.48373392  .00000287  00000+0  66620-4 0  9994",
    "line2": "2 67773  51.9064  92.6496 0000893  96.5337 263.5727 14.79933410 21361"
  },
  {
    "name": "KUIPER-00205",
    "noradId": "67774",
    "line1": "1 67774U 26030L   26178.38608208  .00142594  00000+0  18925-1 0  9991",
    "line2": "2 67774  51.9006  58.0186 0001435 156.1743 203.9285 14.78605746 21844"
  },
  {
    "name": "KUIPER-00208",
    "noradId": "67775",
    "line1": "1 67775U 26030M   26178.48143769  .00002458  00000+0  38032-3 0  9996",
    "line2": "2 67775  51.8972  84.6614 0008197  67.5908 292.5920 14.76477599 21477"
  },
  {
    "name": "KUIPER-00209",
    "noradId": "67776",
    "line1": "1 67776U 26030N   26178.42698341  .00001761  00000+0  25998-3 0  9995",
    "line2": "2 67776  51.8991  82.9441 0000852  81.5958 278.5101 14.79924761 21497"
  },
  {
    "name": "KUIPER-00213",
    "noradId": "67777",
    "line1": "1 67777U 26030P   26178.46342988 -.00001640  00000+0 -18615-3 0  9999",
    "line2": "2 67777  51.8963  80.2690 0000922 104.2773 255.8291 14.79930183 21538"
  },
  {
    "name": "KUIPER-00214",
    "noradId": "67778",
    "line1": "1 67778U 26030Q   26178.43239646 -.00000049  00000+0  22615-4 0  9990",
    "line2": "2 67778  51.9006  77.9103 0000771 102.9465 257.1584 14.79936400 21566"
  },
  {
    "name": "KUIPER-00215",
    "noradId": "67779",
    "line1": "1 67779U 26030R   26178.37303678  .00002321  00000+0  36152-3 0  9995",
    "line2": "2 67779  51.8991  65.1361 0000731  63.9616 296.1420 14.76385662 21741"
  },
  {
    "name": "KUIPER-00218",
    "noradId": "67780",
    "line1": "1 67780U 26030S   26178.42965497  .00001621  00000+0  24161-3 0  9995",
    "line2": "2 67780  51.8974  80.3333 0000862  99.6888 260.4172 14.79920011 21535"
  },
  {
    "name": "KUIPER-00220",
    "noradId": "67781",
    "line1": "1 67781U 26030T   26178.50002315 -.00032055  00000+0 -29506-2 0  9990",
    "line2": "2 67781  51.8977  55.5953 0008603  86.3394 257.9598 14.94172376  5587"
  },
  {
    "name": "KUIPER-00222",
    "noradId": "67782",
    "line1": "1 67782U 26030U   26178.40133197  .00001001  00000+0  16026-3 0  9992",
    "line2": "2 67782  51.8987  75.6133 0000869  97.6592 262.4469 14.79929909 21595"
  },
  {
    "name": "KUIPER-00223",
    "noradId": "67783",
    "line1": "1 67783U 26030V   26177.97045196  .00001685  00000+0  24998-3 0  9990",
    "line2": "2 67783  51.9012  69.8086 0001034 104.7883 255.3194 14.79938158 21644"
  },
  {
    "name": "KUIPER-00225",
    "noradId": "67784",
    "line1": "1 67784U 26030W   26178.43757696 -.00005495  00000+0 -69274-3 0  9999",
    "line2": "2 67784  51.8980  72.9102 0000620  95.2848 264.8185 14.79909324 21634"
  },
  {
    "name": "KUIPER-00226",
    "noradId": "67785",
    "line1": "1 67785U 26030X   26178.50002315 -.00036552  00000+0 -31687-2 0  9993",
    "line2": "2 67785  51.8904  59.1372 0016172  95.8256  44.7597 14.96493527  5675"
  },
  {
    "name": "KUIPER-00259",
    "noradId": "67786",
    "line1": "1 67786U 26030Y   26177.93139086  .00008378  00000+0  11256-2 0  9999",
    "line2": "2 67786  51.8986  75.0524 0000460  76.2379 283.8634 14.79967317 21562"
  },
  {
    "name": "KUIPER-00260",
    "noradId": "67787",
    "line1": "1 67787U 26030Z   26178.40680625  .00020494  00000+0  27093-2 0  9992",
    "line2": "2 67787  51.9003  70.5411 0000645 113.8270 246.2760 14.79930437 21579"
  },
  {
    "name": "KUIPER-00262",
    "noradId": "67788",
    "line1": "1 67788U 26030AA  26178.44052370  .00004281  00000+0  59069-3 0  9992",
    "line2": "2 67788  51.9010  70.3113 0001109 129.6760 230.4300 14.79894108 21670"
  },
  {
    "name": "KUIPER-00266",
    "noradId": "67789",
    "line1": "1 67789U 26030AB  26178.40939671  .00001754  00000+0  25911-3 0  9998",
    "line2": "2 67789  51.9008  67.9469 0003142 122.1614 237.9653 14.79929347 21700"
  },
  {
    "name": "KUIPER-00268",
    "noradId": "67790",
    "line1": "1 67790U 26030AC  26178.37833653  .00001242  00000+0  19195-3 0  9998",
    "line2": "2 67790  51.9034  65.5891 0000749 105.9662 254.1383 14.79928807 21730"
  },
  {
    "name": "KUIPER-00270",
    "noradId": "67791",
    "line1": "1 67791U 26030AD  26178.50002315  .00012929  00000+0  15307-2 0  9991",
    "line2": "2 67791  51.8989  55.1304 0009894  59.4198 305.1040 14.84822765  5887"
  },
  {
    "name": "KUIPER-00274",
    "noradId": "67792",
    "line1": "1 67792U 26030AE  26178.53367779 -.00000256  00000+0 -45696-5 0  9992",
    "line2": "2 67792  51.9030  77.3878 0001107 149.5090 210.5936 14.79932037 21585"
  },
  {
    "name": "KUIPER-00275",
    "noradId": "67793",
    "line1": "1 67793U 26030AF  26178.50002315  .00034122  00000+0  44799-2 0  9999",
    "line2": "2 67793  51.9003  57.5475 0001015 107.8456 318.0265 14.79954287  4941"
  },
  {
    "name": "KUIPER-00276",
    "noradId": "67794",
    "line1": "1 67794U 26030AG  26178.50002315  .00034607  00000+0  45452-2 0  9995",
    "line2": "2 67794  51.8987  62.5347 0004576  81.8065 192.0321 14.79927929  5710"
  },
  {
    "name": "KUIPER-00279",
    "noradId": "67795",
    "line1": "1 67795U 26030AH  26178.50002315  .00015314  00000+0  16328-2 0  9990",
    "line2": "2 67795  51.8989  52.7305 0009400  60.2184 251.4656 14.88986810  5144"
  },
  {
    "name": "KUIPER-00131",
    "noradId": "68573",
    "line1": "1 68573U 26072A   26178.21913621  .00002890  00000+0  40786-3 0  9991",
    "line2": "2 68573  51.8988 151.2872 0000617  71.8370 288.2660 14.79936541 12606"
  },
  {
    "name": "KUIPER-00189",
    "noradId": "68574",
    "line1": "1 68574U 26072B   26178.18259183  .00000085  00000+0  40156-4 0  9990",
    "line2": "2 68574  51.8965 153.9346 0000573  90.3343 269.7685 14.79919165 12563"
  },
  {
    "name": "KUIPER-00192",
    "noradId": "68575",
    "line1": "1 68575U 26072C   26178.22183348  .00000506  00000+0  95359-4 0  9998",
    "line2": "2 68575  51.8985 148.7738 0000786  79.7754 280.3298 14.79929792 12641"
  },
  {
    "name": "KUIPER-00193",
    "noradId": "68576",
    "line1": "1 68576U 26072D   26178.19339674  .00002491  00000+0  38260-3 0  9992",
    "line2": "2 68576  51.9027 138.5043 0000225 210.7091 149.3857 14.76748179 12780"
  },
  {
    "name": "KUIPER-00194",
    "noradId": "68577",
    "line1": "1 68577U 26072E   26178.19125627  .00002955  00000+0  41694-3 0  9994",
    "line2": "2 68577  51.8999 146.4230 0000874  18.1020 341.9973 14.79884561 12672"
  },
  {
    "name": "KUIPER-00229",
    "noradId": "68578",
    "line1": "1 68578U 26072F   26178.18553493  .00002613  00000+0  37173-3 0  9998",
    "line2": "2 68578  51.8994 151.4326 0000473  86.8132 273.2884 14.79913325 12603"
  }
]